{"type":"FeatureCollection","features":[{"type":"Feature","geometry":{"type":"Point","coordinates":[-79.963028,40.462103]},"properties":{"hud_id":"PAA19880560","project":"OHARA PLACE APTS","units":59.0,"li_units":59.0,"year_placed_in_service":1988.0}},{"type":"Feature","geometry":{"type":"Point","coordinates":[-79.931991,40.476039]},"properties":{"hud_id":"PAA19880625","project":"STANTON AVE PROJECT","units":10.0,"li_units":10.0,"year_placed_in_service":1988.0}},{"type":"Feature","geometry":{"type":"Point","coordinates":[-79.965259,40.461899]},"properties":{"hud_id":"PAA19890640","project":"LIBERTY POINT APTS","units":56.0,"li_units":56.0,"year_placed_in_service":1989.0}},{"type":"Feature","geometry":{"type":"Point","coordinates":[-79.946084,40.405927]},"properties":{"hud_id":"PAA19880280","project":"5143-45-47 BLAIR ST","units":3.0,"li_units":3.0,"year_placed_in_service":1988.0}},{"type":"Feature","geometry":{"type":"Point","coordinates":[-79.964586,40.425276]},"properties":{"hud_id":"PAA00000031","project":"CARSON RETIREMENT RESIDENCE","units":69.0,"li_units":null,"year_placed_in_service":8888.0}},{"type":"Feature","geometry":{"type":"Point","coordinates":[-79.964586,40.425276]},"properties":{"hud_id":"PAA00000222","project":"SARAH STREET TOWNHOUSES","units":30.0,"li_units":null,"year_placed_in_service":8888.0}},{"type":"Feature","geometry":{"type":"Point","coordinates":[-79.93484,40.470969]},"properties":{"hud_id":"PAA00000084","project":"GARFIELD HEIGHTS PHASE 4","units":41.0,"li_units":null,"year_placed_in_service":8888.0}},{"type":"Feature","geometry":{"type":"Point","coordinates":[-79.968414,40.452614]},"properties":{"hud_id":"PAA20000140","project":"RIVERVIEW TERRACE","units":36.0,"li_units":36.0,"year_placed_in_service":2000.0}},{"type":"Feature","geometry":{"type":"Point","coordinates":[-79.933218,40.471766]},"properties":{"hud_id":"PAA20040110","project":"NORTH AIKEN APTS","units":76.0,"li_units":76.0,"year_placed_in_service":2004.0}},{"type":"Feature","geometry":{"type":"Point","coordinates":[-79.957171,40.46551]},"properties":{"hud_id":"PAA20100145","project":"YORK COMMONS","units":102.0,"li_units":97.0,"year_placed_in_service":2010.0}},{"type":"Feature","geometry":{"type":"Point","coordinates":[-79.9465,40.4622]},"properties":{"hud_id":"PAA20110035","project":"GARFIELD HEIGHTS PHASE III","units":40.0,"li_units":31.0,"year_placed_in_service":2011.0}},{"type":"Feature","geometry":{"type":"Point","coordinates":[-79.968428,40.452608]},"properties":{"hud_id":"PAA19950125","project":"MILLIONES MANOR","units":40.0,"li_units":39.0,"year_placed_in_service":1995.0}},{"type":"Feature","geometry":{"type":"Point","coordinates":[-79.93583,40.494873]},"properties":{"hud_id":"PAA20191010","project":"SHARPSBURG TOWERS","units":103.0,"li_units":103.0,"year_placed_in_service":2019.0}},{"type":"Feature","geometry":{"type":"Point","coordinates":[-79.946481,40.465304]},"properties":{"hud_id":"PAA20161016","project":"PENN MATHILDA APTS","units":39.0,"li_units":39.0,"year_placed_in_service":2016.0}},{"type":"Feature","geometry":{"type":"Point","coordinates":[-79.9465,40.4622]},"properties":{"hud_id":"PAA20163016","project":"GARFIELD GLEN PHASE II","units":19.0,"li_units":19.0,"year_placed_in_service":2016.0}},{"type":"Feature","geometry":{"type":"Point","coordinates":[-79.967207,40.463047]},"properties":{"hud_id":"PAA20142005","project":"DOUGHBOY APTS","units":45.0,"li_units":9.0,"year_placed_in_service":2014.0}},{"type":"Feature","geometry":{"type":"Point","coordinates":[-79.926164,40.485961]},"properties":{"hud_id":"PAA20182011","project":"MORNINGSIDE CROSSING","units":46.0,"li_units":39.0,"year_placed_in_service":2018.0}}]}
