{"type":"FeatureCollection","features":[{"type":"Feature","geometry":{"type":"Point","coordinates":[-79.988667,40.388447]},"properties":{"hud_id":"PAA19890175","project":"2256 ALMONT ST","units":1.0,"li_units":1.0,"year_placed_in_service":1989.0}},{"type":"Feature","geometry":{"type":"Point","coordinates":[-79.95399,40.451124]},"properties":{"hud_id":"PAA19880440","project":"BELLEFIELD DWELLINGS","units":158.0,"li_units":157.0,"year_placed_in_service":1988.0}},{"type":"Feature","geometry":{"type":"Point","coordinates":[-79.960188,40.45204]},"properties":{"hud_id":"PAA19890490","project":"ANAHEIM STREET","units":8.0,"li_units":5.0,"year_placed_in_service":1989.0}},{"type":"Feature","geometry":{"type":"Point","coordinates":[-79.963028,40.462103]},"properties":{"hud_id":"PAA19880560","project":"OHARA PLACE APTS","units":59.0,"li_units":59.0,"year_placed_in_service":1988.0}},{"type":"Feature","geometry":{"type":"Point","coordinates":[-79.931991,40.476039]},"properties":{"hud_id":"PAA19880625","project":"STANTON AVE PROJECT","units":10.0,"li_units":10.0,"year_placed_in_service":1988.0}},{"type":"Feature","geometry":{"type":"Point","coordinates":[-79.970582,40.445657]},"properties":{"hud_id":"PAA19890560","project":"CENTER AVENUE","units":4.0,"li_units":3.0,"year_placed_in_service":1989.0}},{"type":"Feature","geometry":{"type":"Point","coordinates":[-79.90462,40.45885]},"properties":{"hud_id":"PAA19890635","project":"INWOOD","units":1.0,"li_units":1.0,"year_placed_in_service":1989.0}},{"type":"Feature","geometry":{"type":"Point","coordinates":[-79.965259,40.461899]},"properties":{"hud_id":"PAA19890640","project":"LIBERTY POINT APTS","units":56.0,"li_units":56.0,"year_placed_in_service":1989.0}},{"type":"Feature","geometry":{"type":"Point","coordinates":[-79.973203,40.420115]},"properties":{"hud_id":"PAA19890190","project":"2320 COBDEN ST","units":4.0,"li_units":4.0,"year_placed_in_service":1989.0}},{"type":"Feature","geometry":{"type":"Point","coordinates":[-79.946084,40.405927]},"properties":{"hud_id":"PAA19880280","project":"5143-45-47 BLAIR ST","units":3.0,"li_units":3.0,"year_placed_in_service":1988.0}},{"type":"Feature","geometry":{"type":"Point","coordinates":[-79.952885,40.438883]},"properties":{"hud_id":"PAA19870260","project":"BATES HILL","units":50.0,"li_units":15.0,"year_placed_in_service":1987.0}},{"type":"Feature","geometry":{"type":"Point","coordinates":[-79.964586,40.425276]},"properties":{"hud_id":"PAA00000031","project":"CARSON RETIREMENT RESIDENCE","units":69.0,"li_units":null,"year_placed_in_service":8888.0}},{"type":"Feature","geometry":{"type":"Point","coordinates":[-79.925802,40.467464]},"properties":{"hud_id":"PAA00000045","project":"DADS HOUSE & SAFE HAVEN","units":14.0,"li_units":null,"year_placed_in_service":8888.0}},{"type":"Feature","geometry":{"type":"Point","coordinates":[-79.926735,40.462734]},"properties":{"hud_id":"PAA00000064","project":"EAST LIBERTY PLACE-NORTH","units":38.0,"li_units":null,"year_placed_in_service":8888.0}},{"type":"Feature","geometry":{"type":"Point","coordinates":[-79.964586,40.425276]},"properties":{"hud_id":"PAA00000222","project":"SARAH STREET TOWNHOUSES","units":30.0,"li_units":null,"year_placed_in_service":8888.0}},{"type":"Feature","geometry":{"type":"Point","coordinates":[-79.93484,40.470969]},"properties":{"hud_id":"PAA00000084","project":"GARFIELD HEIGHTS PHASE 4","units":41.0,"li_units":null,"year_placed_in_service":8888.0}},{"type":"Feature","geometry":{"type":"Point","coordinates":[-79.96828,40.426268]},"properties":{"hud_id":"PAA19880145","project":"2612 SARAH ST","units":2.0,"li_units":2.0,"year_placed_in_service":1988.0}},{"type":"Feature","geometry":{"type":"Point","coordinates":[-79.912389,40.40135]},"properties":{"hud_id":"PAA19870135","project":"353 W 12TH AVE","units":5.0,"li_units":5.0,"year_placed_in_service":1987.0}},{"type":"Feature","geometry":{"type":"Point","coordinates":[-79.968684,40.442711]},"properties":{"hud_id":"PAA20030115","project":"OAK HILL ID","units":86.0,"li_units":56.0,"year_placed_in_service":2003.0}},{"type":"Feature","geometry":{"type":"Point","coordinates":[-79.978442,40.445411]},"properties":{"hud_id":"PAA19990276","project":"WYLIE AVENUE TOWNHOMES","units":24.0,"li_units":24.0,"year_placed_in_service":1999.0}},{"type":"Feature","geometry":{"type":"Point","coordinates":[-79.903343,40.458321]},"properties":{"hud_id":"PAA20030150","project":"SILVER LAKE COMMONS","units":75.0,"li_units":75.0,"year_placed_in_service":2003.0}},{"type":"Feature","geometry":{"type":"Point","coordinates":[-79.93362,40.464705]},"properties":{"hud_id":"PAA20060040","project":"FAIRMONT APTS","units":60.0,"li_units":60.0,"year_placed_in_service":2006.0}},{"type":"Feature","geometry":{"type":"Point","coordinates":[-79.968414,40.452614]},"properties":{"hud_id":"PAA20000140","project":"RIVERVIEW TERRACE","units":36.0,"li_units":36.0,"year_placed_in_service":2000.0}},{"type":"Feature","geometry":{"type":"Point","coordinates":[-79.90896,40.407822]},"properties":{"hud_id":"PAA20040060","project":"HERITAGE COURT ELDERLY HOUSING","units":8.0,"li_units":8.0,"year_placed_in_service":2004.0}},{"type":"Feature","geometry":{"type":"Point","coordinates":[-79.907343,40.408945]},"properties":{"hud_id":"PAA20040065","project":"HOMESTEAD APTS II","units":60.0,"li_units":60.0,"year_placed_in_service":2004.0}},{"type":"Feature","geometry":{"type":"Point","coordinates":[-79.92859,40.463687]},"properties":{"hud_id":"PAA20060125","project":"PENN MANOR","units":55.0,"li_units":39.0,"year_placed_in_service":2006.0}},{"type":"Feature","geometry":{"type":"Point","coordinates":[-79.992453,40.428312]},"properties":{"hud_id":"PAA20090105","project":"CENTURY BUILDING","units":60.0,"li_units":28.0,"year_placed_in_service":2009.0}},{"type":"Feature","geometry":{"type":"Point","coordinates":[-79.933218,40.471766]},"properties":{"hud_id":"PAA20040110","project":"NORTH AIKEN APTS","units":76.0,"li_units":76.0,"year_placed_in_service":2004.0}},{"type":"Feature","geometry":{"type":"Point","coordinates":[-79.930264,40.496452]},"properties":{"hud_id":"PAA20040125","project":"SHARPS TERRACE REVITALIZATION","units":36.0,"li_units":35.0,"year_placed_in_service":2004.0}},{"type":"Feature","geometry":{"type":"Point","coordinates":[-79.930503,40.463687]},"properties":{"hud_id":"PAA20010135","project":"NEW PENNLEY PLACE PHASE II","units":34.0,"li_units":28.0,"year_placed_in_service":2001.0}},{"type":"Feature","geometry":{"type":"Point","coordinates":[-79.906972,40.40896]},"properties":{"hud_id":"PAA20070090","project":"HOMESTEAD APTS IV","units":52.0,"li_units":52.0,"year_placed_in_service":2007.0}},{"type":"Feature","geometry":{"type":"Point","coordinates":[-79.957171,40.46551]},"properties":{"hud_id":"PAA20100145","project":"YORK COMMONS","units":102.0,"li_units":97.0,"year_placed_in_service":2010.0}},{"type":"Feature","geometry":{"type":"Point","coordinates":[-79.921016,40.461467]},"properties":{"hud_id":"PAA20070115","project":"LIBERTY PARK PHASE I","units":124.0,"li_units":84.0,"year_placed_in_service":2007.0}},{"type":"Feature","geometry":{"type":"Point","coordinates":[-79.978259,40.444805]},"properties":{"hud_id":"PAA20070120","project":"LOU MASON JR APTS","units":108.0,"li_units":108.0,"year_placed_in_service":2007.0}},{"type":"Feature","geometry":{"type":"Point","coordinates":[-79.980855,40.440452]},"properties":{"hud_id":"PAA20110020","project":"DINWIDDIE STREET HOUSING","units":23.0,"li_units":23.0,"year_placed_in_service":2011.0}},{"type":"Feature","geometry":{"type":"Point","coordinates":[-79.9465,40.4622]},"properties":{"hud_id":"PAA20110035","project":"GARFIELD HEIGHTS PHASE III","units":40.0,"li_units":31.0,"year_placed_in_service":2011.0}},{"type":"Feature","geometry":{"type":"Point","coordinates":[-79.905905,40.409042]},"properties":{"hud_id":"PAA20050085","project":"HOMESTEAD APTS III","units":60.0,"li_units":60.0,"year_placed_in_service":2005.0}},{"type":"Feature","geometry":{"type":"Point","coordinates":[-79.925203,40.464408]},"properties":{"hud_id":"PAA20020035","project":"EMORY SENIOR HOUSING","units":24.0,"li_units":24.0,"year_placed_in_service":2002.0}},{"type":"Feature","geometry":{"type":"Point","coordinates":[-79.907085,40.408957]},"properties":{"hud_id":"PAA20020060","project":"HOMESTEAD APTS","units":60.0,"li_units":60.0,"year_placed_in_service":2002.0}},{"type":"Feature","geometry":{"type":"Point","coordinates":[-79.929899,40.464454]},"properties":{"hud_id":"PAA19990197","project":"PENNLEY PARK APTS","units":102.0,"li_units":25.0,"year_placed_in_service":1999.0}},{"type":"Feature","geometry":{"type":"Point","coordinates":[-79.968684,40.442711]},"properties":{"hud_id":"PAA20020090","project":"OAK HILL IC","units":150.0,"li_units":93.0,"year_placed_in_service":2002.0}},{"type":"Feature","geometry":{"type":"Point","coordinates":[-79.984291,40.445325]},"properties":{"hud_id":"PAA20030010","project":"BEDFORD IA","units":48.0,"li_units":36.0,"year_placed_in_service":2003.0}},{"type":"Feature","geometry":{"type":"Point","coordinates":[-79.980458,40.446068]},"properties":{"hud_id":"PAA20030015","project":"BEDFORD IB","units":99.0,"li_units":75.0,"year_placed_in_service":2003.0}},{"type":"Feature","geometry":{"type":"Point","coordinates":[-79.968428,40.452608]},"properties":{"hud_id":"PAA19950125","project":"MILLIONES MANOR","units":40.0,"li_units":39.0,"year_placed_in_service":1995.0}},{"type":"Feature","geometry":{"type":"Point","coordinates":[-79.924878,40.47122]},"properties":{"hud_id":"PAA19960010","project":"5635 STANTON AVE APTS","units":11.0,"li_units":11.0,"year_placed_in_service":1996.0}},{"type":"Feature","geometry":{"type":"Point","coordinates":[-79.930653,40.459883]},"properties":{"hud_id":"PAA19990060","project":"CONSTANTIN BUILDING","units":37.0,"li_units":37.0,"year_placed_in_service":1999.0}},{"type":"Feature","geometry":{"type":"Point","coordinates":[-79.985407,40.441668]},"properties":{"hud_id":"PAA19990067","project":"CRAWFORD SQUARE PHASE III","units":74.0,"li_units":48.0,"year_placed_in_service":1999.0}},{"type":"Feature","geometry":{"type":"Point","coordinates":[-79.923047,40.458234]},"properties":{"hud_id":"PAA19930045","project":"244 SWOPE ST","units":1.0,"li_units":1.0,"year_placed_in_service":1993.0}},{"type":"Feature","geometry":{"type":"Point","coordinates":[-79.931993,40.464589]},"properties":{"hud_id":"PAA19970075","project":"GARFIELD JUBILEE REHAB PROJECT","units":18.0,"li_units":18.0,"year_placed_in_service":1997.0}},{"type":"Feature","geometry":{"type":"Point","coordinates":[-79.93583,40.494873]},"properties":{"hud_id":"PAA20191010","project":"SHARPSBURG TOWERS","units":103.0,"li_units":103.0,"year_placed_in_service":2019.0}},{"type":"Feature","geometry":{"type":"Point","coordinates":[-79.980877,40.437626]},"properties":{"hud_id":"PAA20130013","project":"SHANAHAN APARTMENTS","units":43.0,"li_units":43.0,"year_placed_in_service":2013.0}},{"type":"Feature","geometry":{"type":"Point","coordinates":[-79.95399,40.451124]},"properties":{"hud_id":"PAA20133006","project":"BELLEFIELD DWELLINGS","units":158.0,"li_units":155.0,"year_placed_in_service":2013.0}},{"type":"Feature","geometry":{"type":"Point","coordinates":[-79.946481,40.465304]},"properties":{"hud_id":"PAA20161016","project":"PENN MATHILDA APTS","units":39.0,"li_units":39.0,"year_placed_in_service":2016.0}},{"type":"Feature","geometry":{"type":"Point","coordinates":[-79.976315,40.425713]},"properties":{"hud_id":"PAA20162007","project":"BREW HOUSE ARTIST HOUSING","units":76.0,"li_units":48.0,"year_placed_in_service":2016.0}},{"type":"Feature","geometry":{"type":"Point","coordinates":[-79.9836,40.4433]},"properties":{"hud_id":"PAA20133058","project":"DINWIDDIE STREET HOUSING III","units":26.0,"li_units":26.0,"year_placed_in_service":2013.0}},{"type":"Feature","geometry":{"type":"Point","coordinates":[-79.924,40.4692]},"properties":{"hud_id":"PAA20162022","project":"LARIMER EAST LIBERTY PH 1","units":81.0,"li_units":56.0,"year_placed_in_service":2016.0}},{"type":"Feature","geometry":{"type":"Point","coordinates":[-79.978607,40.446264]},"properties":{"hud_id":"PAA20163002","project":"ADDISON TERRACE PHASE 2","units":90.0,"li_units":64.0,"year_placed_in_service":2016.0}},{"type":"Feature","geometry":{"type":"Point","coordinates":[-79.9836,40.4433]},"properties":{"hud_id":"PAA20163013","project":"DINWIDDIE STREET PHASE IV","units":23.0,"li_units":23.0,"year_placed_in_service":2016.0}},{"type":"Feature","geometry":{"type":"Point","coordinates":[-79.9465,40.4622]},"properties":{"hud_id":"PAA20163016","project":"GARFIELD GLEN PHASE II","units":19.0,"li_units":19.0,"year_placed_in_service":2016.0}},{"type":"Feature","geometry":{"type":"Point","coordinates":[-79.978612,40.446943]},"properties":{"hud_id":"PAA20142002","project":"ADDISON TERRACE PH 1","units":186.0,"li_units":149.0,"year_placed_in_service":2014.0}},{"type":"Feature","geometry":{"type":"Point","coordinates":[-79.967207,40.463047]},"properties":{"hud_id":"PAA20142005","project":"DOUGHBOY APTS","units":45.0,"li_units":9.0,"year_placed_in_service":2014.0}},{"type":"Feature","geometry":{"type":"Point","coordinates":[-79.927921,40.462358]},"properties":{"hud_id":"PAA20142006","project":"EAST LIBERTY PLACE SOUTH","units":52.0,"li_units":39.0,"year_placed_in_service":2014.0}},{"type":"Feature","geometry":{"type":"Point","coordinates":[-79.976859,40.382424]},"properties":{"hud_id":"PAA20171006","project":"HILLCREST SENIOR RESIDENCES","units":66.0,"li_units":56.0,"year_placed_in_service":2017.0}},{"type":"Feature","geometry":{"type":"Point","coordinates":[-79.953303,40.453549]},"properties":{"hud_id":"PAA20142023","project":"WILLIAM MOORHEAD TOWER","units":141.0,"li_units":136.0,"year_placed_in_service":2014.0}},{"type":"Feature","geometry":{"type":"Point","coordinates":[-79.977071,40.43837]},"properties":{"hud_id":"PAA20150001","project":"UPTOWN LOFTS ON FIFTH","units":47.0,"li_units":47.0,"year_placed_in_service":2015.0}},{"type":"Feature","geometry":{"type":"Point","coordinates":[-79.924,40.4692]},"properties":{"hud_id":"PAA20151006","project":"LARIMER PHASE 1","units":40.0,"li_units":40.0,"year_placed_in_service":2015.0}},{"type":"Feature","geometry":{"type":"Point","coordinates":[-79.980483,40.439485]},"properties":{"hud_id":"PAA20120030","project":"DINWIDDIE STREET HOUSING II","units":23.0,"li_units":23.0,"year_placed_in_service":2012.0}},{"type":"Feature","geometry":{"type":"Point","coordinates":[-79.926164,40.485961]},"properties":{"hud_id":"PAA20182011","project":"MORNINGSIDE CROSSING","units":46.0,"li_units":39.0,"year_placed_in_service":2018.0}},{"type":"Feature","geometry":{"type":"Point","coordinates":[-79.9574,40.4391]},"properties":{"hud_id":"PAA20182013","project":"OAKLAND AFFORDABLE LIVING","units":49.0,"li_units":49.0,"year_placed_in_service":2018.0}},{"type":"Feature","geometry":{"type":"Point","coordinates":[-79.975512,40.428614]},"properties":{"hud_id":"PAA20191002","project":"CARSON TOWERS APTS","units":133.0,"li_units":133.0,"year_placed_in_service":2019.0}},{"type":"Feature","geometry":{"type":"Point","coordinates":[-79.982512,40.439374]},"properties":{"hud_id":"PAA20191006","project":"MILLER STREET APARTMENTS","units":36.0,"li_units":36.0,"year_placed_in_service":2019.0}}]}
